{"type": "FeatureCollection", "features": [ {"type": "Feature", "properties": {"norad_id": 66988, "name": "YAOGAN-47", "group": "last-30-days", "lat": 54.53452161496639, "lon": 49.14450696075691, "alt_km": 490.56470129142235, "timestamp": "2025-12-20T16:47:35.026172+00:00", "meta": {"OBJECT_NAME": "YAOGAN-47", "OBJECT_ID": "2025-289A", "EPOCH": "2025-12-20T02:21:43.539840", "MEAN_MOTION": 15.23243112, "ECCENTRICITY": 6.467e-05, "INCLINATION": 97.5265, "RA_OF_ASC_NODE": 59.2376, "ARG_OF_PERICENTER": 91.4531, "MEAN_ANOMALY": 268.678, "EPHEMERIS_TYPE": 0, "CLASSIFICATION_TYPE": "U", "NORAD_CAT_ID": 66988, "ELEMENT_SET_NO": 999, "REV_AT_EPOCH": 166, "BSTAR": 0.00010945697, "MEAN_MOTION_DOT": 2.52e-05, "MEAN_MOTION_DDOT": 0}, "tle": {"line1": "1 66988U 25289A   25354.09842060  .00002520  00000+0  10946-3 0  9992", "line2": "2 66988  97.5265  59.2376 0000646  91.4531 268.6780 15.23243112  1668"}}, "geometry": {"type": "Point", "coordinates": [49.14450696075691, 54.53452161496639]}}, {"type": "Feature", "properties": {"norad_id": 66989, "name": "CZ-4B R/B", "group": "last-30-days", "lat": 71.98566688318908, "lon": 36.63781894576181, "alt_km": 371.4518768797943, "timestamp": "2025-12-20T16:47:35.026182+00:00", "meta": {"OBJECT_NAME": "CZ-4B R/B", "OBJECT_ID": "2025-289B", "EPOCH": "2025-12-20T04:14:22.087392", "MEAN_MOTION": 15.68977021, "ECCENTRICITY": 0.01434037, "INCLINATION": 97.5256, "RA_OF_ASC_NODE": 60.0631, "ARG_OF_PERICENTER": 334.7401, "MEAN_ANOMALY": 24.6893, "EPHEMERIS_TYPE": 0, "CLASSIFICATION_TYPE": "U", "NORAD_CAT_ID": 66989, "ELEMENT_SET_NO": 999, "REV_AT_EPOCH": 173, "BSTAR": 0.00046062068, "MEAN_MOTION_DOT": 0.0009578, "MEAN_MOTION_DDOT": 4.888764e-06}, "tle": {"line1": "1 66989U 25289B   25354.17664453  .00095780  48888-5  46062-3 0  9990", "line2": "2 66989  97.5256  60.0631 0143403 334.7401  24.6893 15.68977021  1736"}}, "geometry": {"type": "Point", "coordinates": [36.63781894576181, 71.98566688318908]}}, {"type": "Feature", "properties": {"norad_id": 66990, "name": "TJS-22", "group": "last-30-days", "lat": 1.675124559005475, "lon": 47.910175008675594, "alt_km": 35797.47846419448, "timestamp": "2025-12-20T16:47:35.026194+00:00", "meta": {"OBJECT_NAME": "TJS-22", "OBJECT_ID": "2025-290A", "EPOCH": "2025-12-20T08:40:17.971968", "MEAN_MOTION": 1.00270749, "ECCENTRICITY": 0.0003448, "INCLINATION": 1.9695, "RA_OF_ASC_NODE": 285.015, "ARG_OF_PERICENTER": 341.992, "MEAN_ANOMALY": 18.7232, "EPHEMERIS_TYPE": 0, "CLASSIFICATION_TYPE": "U", "NORAD_CAT_ID": 66990, "ELEMENT_SET_NO": 999, "REV_AT_EPOCH": 23, "BSTAR": 0, "MEAN_MOTION_DOT": 1.9e-07, "MEAN_MOTION_DDOT": 0}, "tle": {"line1": "1 66990U 25290A   25354.36131912  .00000019  00000+0  00000+0 0  9991", "line2": "2 66990   1.9695 285.0150 0003448 341.9920  18.7232  1.00270749   238"}}, "geometry": {"type": "Point", "coordinates": [47.910175008675594, 1.675124559005475]}}, {"type": "Feature", "properties": {"norad_id": 66991, "name": "CZ-3B R/B", "group": "last-30-days", "lat": -3.7949551340031986, "lon": -68.52386176948056, "alt_km": 31503.19740228322, "timestamp": "2025-12-20T16:47:35.026206+00:00", "meta": {"OBJECT_NAME": "CZ-3B R/B", "OBJECT_ID": "2025-290B", "EPOCH": "2025-12-15T17:23:33.043200", "MEAN_MOTION": 2.38388611, "ECCENTRICITY": 0.7240884, "INCLINATION": 28.4636, "RA_OF_ASC_NODE": 300.4666, "ARG_OF_PERICENTER": 182.7002, "MEAN_ANOMALY": 168.625, "EPHEMERIS_TYPE": 0, "CLASSIFICATION_TYPE": "U", "NORAD_CAT_ID": 66991, "ELEMENT_SET_NO": 999, "REV_AT_EPOCH": 16, "BSTAR": 0.00075879, "MEAN_MOTION_DOT": 0.00057911, "MEAN_MOTION_DDOT": -2.0514e-07}, "tle": {"line1": "1 66991U 25290B   25349.72468800  .00057911 -20514-6  75879-3 0  9998", "line2": "2 66991  28.4636 300.4666 7240884 182.7002 168.6250  2.38388611   165"}}, "geometry": {"type": "Point", "coordinates": [-68.52386176948056, -3.7949551340031986]}}, {"type": "Feature", "properties": {"norad_id": 66993, "name": "2025-292A", "group": "last-30-days", "lat": -61.87129664408421, "lon": -127.39217686403212, "alt_km": 550.3732677481639, "timestamp": "2025-12-20T16:47:35.026217+00:00", "meta": {"OBJECT_NAME": "2025-292A", "OBJECT_ID": "2025-292A", "EPOCH": "2025-12-20T10:55:40.764288", "MEAN_MOTION": 15.0454658, "ECCENTRICITY": 0.0014016, "INCLINATION": 97.6522, "RA_OF_ASC_NODE": 66.9319, "ARG_OF_PERICENTER": 243.9289, "MEAN_ANOMALY": 116.0494, "EPHEMERIS_TYPE": 0, "CLASSIFICATION_TYPE": "U", "NORAD_CAT_ID": 66993, "ELEMENT_SET_NO": 999, "REV_AT_EPOCH": 155, "BSTAR": 0.00018741, "MEAN_MOTION_DOT": 2.57e-05, "MEAN_MOTION_DDOT": 0}, "tle": {"line1": "1 66993U 25292A   25354.45533292  .00002570  00000+0  18741-3 0  9992", "line2": "2 66993  97.6522  66.9319 0014016 243.9289 116.0494 15.04546580  1553"}}, "geometry": {"type": "Point", "coordinates": [-127.39217686403212, -61.87129664408421]}}, {"type": "Feature", "properties": {"norad_id": 66994, "name": "2025-292B", "group": "last-30-days", "lat": -63.4743428733599, "lon": -128.45254994139276, "alt_km": 550.4403789384396, "timestamp": "2025-12-20T16:47:35.026233+00:00", "meta": {"OBJECT_NAME": "2025-292B", "OBJECT_ID": "2025-292B", "EPOCH": "2025-12-20T10:55:14.668032", "MEAN_MOTION": 15.04589115, "ECCENTRICITY": 0.0013767, "INCLINATION": 97.6532, "RA_OF_ASC_NODE": 66.9334, "ARG_OF_PERICENTER": 244.1243, "MEAN_ANOMALY": 115.8564, "EPHEMERIS_TYPE": 0, "CLASSIFICATION_TYPE": "U", "NORAD_CAT_ID": 66994, "ELEMENT_SET_NO": 999, "REV_AT_EPOCH": 155, "BSTAR": 0.00021784, "MEAN_MOTION_DOT": 3.001e-05, "MEAN_MOTION_DDOT": 0}, "tle": {"line1": "1 66994U 25292B   25354.45503088  .00003001  00000+0  21784-3 0  9994", "line2": "2 66994  97.6532  66.9334 0013767 244.1243 115.8564 15.04589115  1553"}}, "geometry": {"type": "Point", "coordinates": [-128.45254994139276, -63.4743428733599]}}, {"type": "Feature", "properties": {"norad_id": 66995, "name": "2025-292C", "group": "last-30-days", "lat": -63.959807253237564, "lon": -128.79734164018504, "alt_km": 550.1550203184879, "timestamp": "2025-12-20T16:47:35.026243+00:00", "meta": {"OBJECT_NAME": "2025-292C", "OBJECT_ID": "2025-292C", "EPOCH": "2025-12-20T10:55:06.856608", "MEAN_MOTION": 15.04615921, "ECCENTRICITY": 0.001407, "INCLINATION": 97.6522, "RA_OF_ASC_NODE": 66.9324, "ARG_OF_PERICENTER": 244.5113, "MEAN_ANOMALY": 115.4658, "EPHEMERIS_TYPE": 0, "CLASSIFICATION_TYPE": "U", "NORAD_CAT_ID": 66995, "ELEMENT_SET_NO": 999, "REV_AT_EPOCH": 155, "BSTAR": 0.00023523, "MEAN_MOTION_DOT": 3.248e-05, "MEAN_MOTION_DDOT": 0}, "tle": {"line1": "1 66995U 25292C   25354.45494047  .00003248  00000+0  23523-3 0  9995", "line2": "2 66995  97.6522  66.9324 0014070 244.5113 115.4658 15.04615921  1555"}}, "geometry": {"type": "Point", "coordinates": [-128.79734164018504, -63.959807253237564]}}, {"type": "Feature", "properties": {"norad_id": 66996, "name": "2025-292D", "group": "last-30-days", "lat": -65.52130177879641, "lon": -129.9999909155653, "alt_km": 550.6760545675861, "timestamp": "2025-12-20T16:47:35.026253+00:00", "meta": {"OBJECT_NAME": "2025-292D", "OBJECT_ID": "2025-292D", "EPOCH": "2025-12-20T10:54:40.999680", "MEAN_MOTION": 15.04643648, "ECCENTRICITY": 0.0013224, "INCLINATION": 97.6516, "RA_OF_ASC_NODE": 66.9321, "ARG_OF_PERICENTER": 247.1957, "MEAN_ANOMALY": 112.7872, "EPHEMERIS_TYPE": 0, "CLASSIFICATION_TYPE": "U", "NORAD_CAT_ID": 66996, "ELEMENT_SET_NO": 999, "REV_AT_EPOCH": 155, "BSTAR": 0.00016048, "MEAN_MOTION_DOT": 2.197e-05, "MEAN_MOTION_DDOT": 0}, "tle": {"line1": "1 66996U 25292D   25354.45464120  .00002197  00000+0  16048-3 0  9991", "line2": "2 66996  97.6516  66.9321 0013224 247.1957 112.7872 15.04643648  1556"}}, "geometry": {"type": "Point", "coordinates": [-129.9999909155653, -65.52130177879641]}}, {"type": "Feature", "properties": {"norad_id": 66997, "name": "2025-292E", "group": "last-30-days", "lat": -68.4109770661884, "lon": -132.68794056242035, "alt_km": 550.18276925174, "timestamp": "2025-12-20T16:47:35.026263+00:00", "meta": {"OBJECT_NAME": "2025-292E", "OBJECT_ID": "2025-292E", "EPOCH": "2025-12-20T10:53:53.039040", "MEAN_MOTION": 15.04729417, "ECCENTRICITY": 0.0013614, "INCLINATION": 97.6536, "RA_OF_ASC_NODE": 66.9353, "ARG_OF_PERICENTER": 248.1621, "MEAN_ANOMALY": 111.8158, "EPHEMERIS_TYPE": 0, "CLASSIFICATION_TYPE": "U", "NORAD_CAT_ID": 66997, "ELEMENT_SET_NO": 999, "REV_AT_EPOCH": 154, "BSTAR": 0.00018026, "MEAN_MOTION_DOT": 2.482e-05, "MEAN_MOTION_DDOT": 0}, "tle": {"line1": "1 66997U 25292E   25354.45408610  .00002482  00000+0  18026-3 0  9999", "line2": "2 66997  97.6536  66.9353 0013614 248.1621 111.8158 15.04729417  1541"}}, "geometry": {"type": "Point", "coordinates": [-132.68794056242035, -68.4109770661884]}}, {"type": "Feature", "properties": {"norad_id": 66998, "name": "2025-292F", "group": "last-30-days", "lat": -73.85229289721462, "lon": -140.4984202984247, "alt_km": 549.017160633779, "timestamp": "2025-12-20T16:47:35.026272+00:00", "meta": {"OBJECT_NAME": "2025-292F", "OBJECT_ID": "2025-292F", "EPOCH": "2025-12-20T10:52:19.702848", "MEAN_MOTION": 15.04898936, "ECCENTRICITY": 0.0014725, "INCLINATION": 97.6556, "RA_OF_ASC_NODE": 66.9391, "ARG_OF_PERICENTER": 249.0139, "MEAN_ANOMALY": 110.9512, "EPHEMERIS_TYPE": 0, "CLASSIFICATION_TYPE": "U", "NORAD_CAT_ID": 66998, "ELEMENT_SET_NO": 999, "REV_AT_EPOCH": 155, "BSTAR": 0.00023185, "MEAN_MOTION_DOT": 3.226e-05, "MEAN_MOTION_DDOT": 0}, "tle": {"line1": "1 66998U 25292F   25354.45300582  .00003226  00000+0  23185-3 0  9998", "line2": "2 66998  97.6556  66.9391 0014725 249.0139 110.9512 15.04898936  1552"}}, "geometry": {"type": "Point", "coordinates": [-140.4984202984247, -73.85229289721462]}}]}